O3B FM10                
1 40348U 14083A   26115.58813625 -.00000027  00000+0  00000+0 0  9996
2 40348   0.0389 337.7556 0002653  57.6099 324.6504  5.00115287207269
O3B FM11                
1 40349U 14083B   26115.80071202 -.00000027  00000+0  00000+0 0  9999
2 40349   0.0578 359.4196 0002919  21.5522 339.0384  5.00115551207290
O3B FM12                
1 40350U 14083C   26115.82776879 -.00000027  00000+0  00000+0 0  9995
2 40350   0.0570 359.0554 0002552  32.1526 328.8055  5.00115930207307
O3B FM9                 
1 40351U 14083D   26115.65471021 -.00000027  00000+0  00000+0 0  9998
2 40351   0.0590 359.1750 0002707  34.7092 326.1314  5.00115907207445
ASTRA 2G                
1 40364U 14089A   26115.85791260  .00000136  00000+0  00000+0 0  9990
2 40364   0.0562  28.1350 0004732  15.1660 147.5990  1.00270717 41449
SES-9                   
1 41380U 16013A   26115.94052814 -.00000358  00000+0  00000+0 0  9990
2 41380   0.0164 285.3139 0001996 134.1316 241.3811  1.00270312 36919
SES-10                  
1 42432U 17017A   26115.91034617 -.00000286  00000+0  00000+0 0  9992
2 42432   0.0255  14.9532 0002805  32.7215  67.0762  1.00272879 33233
SES-15                  
1 42709U 17026A   26115.68411983  .00000046  00000+0  00000+0 0  9991
2 42709   0.0249 331.2396 0000622  35.8861 323.6957  1.00270298  6906
SES-11 (ECHOSTAR 105)   
1 42967U 17063A   26115.90280613  .00000000  00000+0  00000+0 0  9997
2 42967   0.0185  67.3828 0002868 354.3977  12.1907  1.00269605 31193
SES-14                  
1 43175U 18012B   26115.91415951 -.00000292  00000+0  00000+0 0  9994
2 43175   0.0236  64.2246 0000942 323.9892 107.3152  1.00271525  6501
O3B FM15                
1 43231U 18024A   26115.72149344 -.00000027  00000+0  00000+0 0  9995
2 43231   0.0510   4.1856 0002639  27.8727 327.9560  5.00115745148405
O3B FM16                
1 43232U 18024B   26115.77384741 -.00000027  00000+0  00000+0 0  9993
2 43232   0.0487   8.2295 0002685  22.4728 329.3116  5.00115781148328
O3B FM14                
1 43233U 18024C   26115.01506422 -.00000027  00000+0  00000+0 0  9993
2 43233   0.0471   8.1994 0002861  26.7396 325.0779  5.00115692148296
O3B FM13                
1 43234U 18024D   26115.08092587 -.00000027  00000+0  00000+0 0  9993
2 43234   0.0559 329.1327 0003596  20.8365  10.0218  5.00115557148409
SES-12                  
1 43488U 18049A   26115.98369749  .00000000  00000+0  00000+0 0  9997
2 43488   0.0161  69.6107 0001300 249.8261 343.6976  1.00271361 28898
O3B FM20                
1 44112U 19020A   26115.84066545 -.00000027  00000+0  00000+0 0  9995
2 44112   0.0532   1.2950 0002589  23.2260 335.4896  5.00115504128954
O3B FM19                
1 44113U 19020B   26111.67003593 -.00000022  00000+0  00000+0 0  9992
2 44113   0.0716 348.2754 0003491  26.5306 345.2041  5.00115966128611
